{
  "norad_id": 54748,
  "name": "YAOGAN-36 04B",
  "history": [
    {
      "epoch": "2026-03-28T03:14:10.447296Z",
      "apogee_km": 500.58336134443834,
      "perigee_km": 491.94100417985373,
      "latitude_deg": -8.679047704941544e-06,
      "longitude_deg": 110.55001418386874,
      "height_km": 499.4894352214221,
      "semi_major_axis_km": 6874.399182762146,
      "eccentricity": 0.00062859,
      "inclination_deg": 35.0045,
      "raan_deg": 344.6532,
      "arg_perigee_deg": 179.3166,
      "mean_anomaly_deg": 180.7558,
      "mean_motion_rev_day": 15.2317794
    },
    {
      "epoch": "2026-03-29T02:50:01.651488Z",
      "apogee_km": 500.63369499409873,
      "perigee_km": 492.4789337845705,
      "latitude_deg": 3.814742177641885e-06,
      "longitude_deg": 109.43416362998225,
      "height_km": 499.5187011044935,
      "semi_major_axis_km": 6874.693314389335,
      "eccentricity": 0.0005931,
      "inclination_deg": 35.004,
      "raan_deg": 338.4698,
      "arg_perigee_deg": 185.9543,
      "mean_anomaly_deg": 174.1102,
      "mean_motion_rev_day": 15.23080188
    },
    {
      "epoch": "2026-03-30T02:25:51.130272Z",
      "apogee_km": 500.7159097965168,
      "perigee_km": 492.182485949098,
      "latitude_deg": 2.0712212986855174e-05,
      "longitude_deg": 108.3243290553517,
      "height_km": 499.47386688692427,
      "semi_major_axis_km": 6874.586197872807,
      "eccentricity": 0.00062065,
      "inclination_deg": 35.0042,
      "raan_deg": 332.2852,
      "arg_perigee_deg": 195.2248,
      "mean_anomaly_deg": 164.8281,
      "mean_motion_rev_day": 15.23115786
    },
    {
      "epoch": "2026-03-30T21:18:29.431296Z",
      "apogee_km": 500.7090499570895,
      "perigee_km": 492.0341075815404,
      "latitude_deg": -6.358785961846415e-06,
      "longitude_deg": 179.44224051905212,
      "height_km": 499.30036343241045,
      "semi_major_axis_km": 6874.508578769315,
      "eccentricity": 0.00063095,
      "inclination_deg": 35.0041,
      "raan_deg": 327.338,
      "arg_perigee_deg": 202.0348,
      "mean_anomaly_deg": 158.0096,
      "mean_motion_rev_day": 15.23141582
    },
    {
      "epoch": "2026-03-31T16:11:10.429728Z",
      "apogee_km": 500.2043781228849,
      "perigee_km": 492.9584249276777,
      "latitude_deg": 3.786863708493568e-05,
      "longitude_deg": -109.44901656934294,
      "height_km": 498.9181937070363,
      "semi_major_axis_km": 6874.7184015252815,
      "eccentricity": 0.000527,
      "inclination_deg": 35.0018,
      "raan_deg": 322.3928,
      "arg_perigee_deg": 198.8283,
      "mean_anomaly_deg": 161.2238,
      "mean_motion_rev_day": 15.23071851
    },
    {
      "epoch": "2026-04-01T20:30:11.488032Z",
      "apogee_km": 500.7481250687042,
      "perigee_km": 492.3225266661211,
      "latitude_deg": 5.4689848522753726e-05,
      "longitude_deg": 177.2119629740872,
      "height_km": 498.8107977534718,
      "semi_major_axis_km": 6874.672325867412,
      "eccentricity": 0.0006128,
      "inclination_deg": 35.0038,
      "raan_deg": 314.9711,
      "arg_perigee_deg": 216.9522,
      "mean_anomaly_deg": 143.0772,
      "mean_motion_rev_day": 15.23087163
    },
    {
      "epoch": "2026-04-02T20:06:00.537408Z",
      "apogee_km": 500.69134322230184,
      "perigee_km": 492.12153736962955,
      "latitude_deg": -7.0560254422859825e-06,
      "longitude_deg": 176.1041110184451,
      "height_km": 498.32766218049886,
      "semi_major_axis_km": 6874.543440295965,
      "eccentricity": 0.0006233,
      "inclination_deg": 35.0038,
      "raan_deg": 308.7868,
      "arg_perigee_deg": 225.336,
      "mean_anomaly_deg": 134.6847,
      "mean_motion_rev_day": 15.23129996
    },
    {
      "epoch": "2026-04-02T21:40:23.733408Z",
      "apogee_km": 500.6888380938517,
      "perigee_km": 492.1099666266191,
      "latitude_deg": 3.306591280472096e-05,
      "longitude_deg": 152.03051270820515,
      "height_km": 498.2983954632346,
      "semi_major_axis_km": 6874.536402360235,
      "eccentricity": 0.00062396,
      "inclination_deg": 35.0038,
      "raan_deg": 308.3744,
      "arg_perigee_deg": 225.8116,
      "mean_anomaly_deg": 134.2087,
      "mean_motion_rev_day": 15.23132335
    },
    {
      "epoch": "2026-04-03T19:41:47.393952Z",
      "apogee_km": 500.638436611669,
      "perigee_km": 491.9450340329813,
      "latitude_deg": -1.3738280415771278e-05,
      "longitude_deg": 175.0052983601987,
      "height_km": 497.79967682235775,
      "semi_major_axis_km": 6874.428735322325,
      "eccentricity": 0.0006323,
      "inclination_deg": 35.0038,
      "raan_deg": 302.6023,
      "arg_perigee_deg": 233.2856,
      "mean_anomaly_deg": 126.7278,
      "mean_motion_rev_day": 15.23168118
    },
    {
      "epoch": "2026-04-04T00:24:56.533536Z",
      "apogee_km": 500.6142068720601,
      "perigee_km": 491.92756757760435,
      "latitude_deg": 1.0693638737201637e-05,
      "longitude_deg": 102.78644054473872,
      "height_km": 497.68709515336997,
      "semi_major_axis_km": 6874.407887224832,
      "eccentricity": 0.00063181,
      "inclination_deg": 35.0037,
      "raan_deg": 301.3653,
      "arg_perigee_deg": 234.7485,
      "mean_anomaly_deg": 125.2639,
      "mean_motion_rev_day": 15.23175047
    },
    {
      "epoch": "2026-04-05T14:10:06.963168Z",
      "apogee_km": 500.6064127128693,
      "perigee_km": 491.66930545407104,
      "latitude_deg": 1.094157257138916e-05,
      "longitude_deg": -114.9532742864437,
      "height_km": 496.772467864804,
      "semi_major_axis_km": 6874.27485908347,
      "eccentricity": 0.00065004,
      "inclination_deg": 35.0041,
      "raan_deg": 291.4695,
      "arg_perigee_deg": 247.2931,
      "mean_anomaly_deg": 112.7097,
      "mean_motion_rev_day": 15.23219261
    }
  ]
}